ONEWEB-0053             
1 45157U 20008AC  23316.45072981  .00000134  00000+0  34741-3 0  9992
2 45157  87.8920 224.5024 0001854  71.9946 288.1383 13.10369681183790
ONEWEB-0054             
1 45158U 20008AD  23316.48647653 -.00000120  00000+0 -38033-3 0  9995
2 45158  87.8926 224.4812 0001757  72.5617 287.5703 13.10377254183913
ONEWEB-0056             
1 45159U 20008AE  23316.46697325 -.00000532  00000+0 -15610-2 0  9997
2 45159  87.8923 224.4802 0001868  68.5326 291.6000 13.10372836184069
ONEWEB-0057             
1 45160U 20008AF  23316.47346236 -.00000572  00000+0 -16757-2 0  9999
2 45160  87.8927 224.4734 0001801  65.9667 294.1648 13.10369715184232
ONEWEB-0058             
1 45161U 20008AG  23316.76606471 -.00000374  00000+0 -11085-2 0  9991
2 45161  87.8927 224.4621 0001710  70.3394 289.7918 13.10371666185097
ONEWEB-0059             
1 45162U 20008AH  23316.45722799 -.00000215  00000+0 -65169-3 0  9997
2 45162  87.8922 224.4944 0001569  69.2013 290.9283 13.10368074184208
ONEWEB-0062             
1 45163U 20008AJ  23316.48484187 -.00000228  00000+0 -68821-3 0  9999
2 45163  87.8925 224.4760 0001758  74.4328 285.6994 13.10376381184070
ONEWEB-0065             
1 45164U 20008AK  23316.46210203 -.00000407  00000+0 -12023-2 0  9995
2 45164  87.8927 224.4772 0001815  70.3113 289.8210 13.10371713183763
